[{"OBJECT_NAME":"STARLINK-3874","OBJECT_ID":"2022-045AL","EPOCH":"2026-03-09T12:40:13.277280","MEAN_MOTION":15.08840357,"ECCENTRICITY":0.00013375,"INCLINATION":53.2159,"RA_OF_ASC_NODE":189.8483,"ARG_OF_PERICENTER":81.4081,"MEAN_ANOMALY":278.7063,"EPHEMERIS_TYPE":0,"CLASSIFICATION_TYPE":"U","NORAD_CAT_ID":52365,"ELEMENT_SET_NO":999,"REV_AT_EPOCH":21589,"BSTAR":-5.619475e-6,"MEAN_MOTION_DOT":-3.77e-6,"MEAN_MOTION_DDOT":0},{"OBJECT_NAME":"SL-8 DEB","OBJECT_ID":"1986-052E","EPOCH":"2026-03-08T09:24:38.203776","MEAN_MOTION":15.11223117,"ECCENTRICITY":0.00100672,"INCLINATION":74.0059,"RA_OF_ASC_NODE":66.8929,"ARG_OF_PERICENTER":314.4934,"MEAN_ANOMALY":45.5435,"EPHEMERIS_TYPE":0,"CLASSIFICATION_TYPE":"U","NORAD_CAT_ID":16867,"ELEMENT_SET_NO":999,"REV_AT_EPOCH":11371,"BSTAR":0.0018795551,"MEAN_MOTION_DOT":0.0003173,"MEAN_MOTION_DDOT":0}]
